BRAC ONNESHA            
1 42823U 98067MX  18080.43303919  .00021520  00000-0  22939-3 0  9996
2 42823  51.6367  86.4656 0003927 212.9651 147.1099 15.63900440 40109
NIGERIAEDUSAT-1         
1 42824U 98067MY  18081.21467183  .00018436  00000-0  19826-3 0  9991
2 42824  51.6374  82.6964 0003836 215.8988 144.1749 15.63791312 40196
CORVUS BC2              
1 42846U 17042X   18081.21052371  .00000402  00000-0  45248-4 0  9990
2 42846  97.6041 347.1908 0010909 121.3212 238.9076 14.91777228 37403
CORVUS BC1              
1 42847U 17042Y   18080.79152815  .00000140  00000-0  19209-4 0  9994
2 42847  97.6041 346.8229 0010571 121.9864 238.2384 14.91875964 37333
SILU-1 (SILKROAD 1)     
1 42903U 17021F   18081.16652587  .00026249  00000-0  23445-3 0  9991
2 42903  42.7785 133.8494 0009855  41.6786 351.6410 15.67800097 36253
MIRATA                  
1 43015U 17073C   18080.75589803  .00001079  00000-0  91126-4 0  9993
2 43015  97.6996  15.4909 0258431 195.8449 163.4568 14.77889477 18220
ASTERIA                 
1 43020U 98067NH  18081.18524532  .00010189  00000-0  14366-3 0  9999
2 43020  51.6396  90.7710 0001803 187.7847 172.3117 15.57252115 18925
DELLINGR (RBLE)         
1 43021U 98067NJ  18081.22346186  .00007050  00000-0  10514-3 0  9996
2 43021  51.6389  91.0209 0001757 185.3824 174.7149 15.56287347 18927
TECHEDSAT 6             
1 43026U 98067NK  18081.17382345  .00150813  00000-0  11541-2 0  9998
2 43026  51.6338  85.4083 0003183  52.8472 307.2816 15.71142119 18899
OSIRIS-3U               
1 43027U 98067NL  18081.21092947  .00021682  00000-0  27047-3 0  9990
2 43027  51.6381  89.4358 0002259 154.3264 205.7842 15.59814002 18824
AEROCUBE 7B             
1 43042U 17071F   18080.95411297  .00003945  00000-0  11335-3 0  9991
2 43042  51.6381 106.3124 0005085 315.8183  44.2394 15.38235779 16174
AEROCUBE 7C             
1 43043U 17071G   18080.95341852  .00003931  00000-0  11295-3 0  9991
2 43043  51.6384 106.3097 0005047 315.8665  44.1916 15.38245821 16145
CHEFSAT                 
1 43044U 17071H   18081.19672893  .00005288  00000-0  14605-3 0  9996
2 43044  51.6388 104.9396 0005144 313.6525  46.4032 15.38735397 16185
ASGARDIA 1              
1 43049U 17071N   18081.13701287  .00004183  00000-0  11892-3 0  9993
2 43049  51.6386 105.2885 0002618 341.7365  18.3525 15.38401703 16166
ISARA                   
1 43050U 17071P   18080.47864056  .00005875  00000-0  16135-3 0  9999
2 43050  51.6385 108.3971 0002659 335.1659  24.9197 15.38688013 16063
FAUNA                   
1 43052U 17071R   18080.87225783  .00004254  00000-0  12042-3 0  9996
2 43052  51.6388 106.5251 0002509 337.0012  23.0859 15.38495273 16123
CORVUS BC3              
1 43118U 18004H   18080.90795574  .00001120  00000-0  52020-4 0  9990
2 43118  97.5437 143.2859 0011800  46.8190 313.4030 15.22081906 10430
MICROMAS-2A             
1 43131U 18004W   18081.15753479  .00002471  00000-0  10979-3 0  9997
2 43131  97.5435 143.5713 0011012  49.9971 310.2230 15.22451916 10474
GOMX4-B                 
1 43196U 18015E   18081.11809479  .00002327  00000-0  10000-3 0  9993
2 43196  97.3337 211.9309 0021601 103.2002 257.4579 15.23446931  7273
GOMX4-A                 
1 43197U 18015F   18081.20794278  .00001499  00000-0  65280-4 0  9994
2 43197  97.3315 212.0127 0021055 102.7490  16.0092 15.23557052  7296
